[{"OBJECT_NAME":"ONEWEB-0322","OBJECT_ID":"2021-083G","EPOCH":"2026-03-09T19:40:32.416032","MEAN_MOTION":13.13469867,"ECCENTRICITY":0.00018091,"INCLINATION":87.9028,"RA_OF_ASC_NODE":340.0096,"ARG_OF_PERICENTER":94.9466,"MEAN_ANOMALY":265.1869,"EPHEMERIS_TYPE":0,"CLASSIFICATION_TYPE":"U","NORAD_CAT_ID":49192,"ELEMENT_SET_NO":999,"REV_AT_EPOCH":21787,"BSTAR":0.00094213149,"MEAN_MOTION_DOT":3.57e-6,"MEAN_MOTION_DDOT":0},{"OBJECT_NAME":"DELTA 1 DEB","OBJECT_ID":"1975-052LZ","EPOCH":"2026-03-09T22:38:25.486656","MEAN_MOTION":13.45203955,"ECCENTRICITY":0.02148763,"INCLINATION":99.8057,"RA_OF_ASC_NODE":240.4217,"ARG_OF_PERICENTER":312.3877,"MEAN_ANOMALY":202.8711,"EPHEMERIS_TYPE":0,"CLASSIFICATION_TYPE":"U","NORAD_CAT_ID":42640,"ELEMENT_SET_NO":999,"REV_AT_EPOCH":60270,"BSTAR":0.00085702682,"MEAN_MOTION_DOT":5.36e-6,"MEAN_MOTION_DDOT":0}]
